{
    "links": {
        "self": "http://www.neowsapp.com/rest/v1/neo/3584136?api_key=iIulBulltgU6a56xZRHN4H3l9WmuAYTsLGpBGhQ2"
    },
    "id": "3584136",
    "neo_reference_id": "3584136",
    "name": "(2011 UY192)",
    "designation": "2011 UY192",
    "nasa_jpl_url": "http://ssd.jpl.nasa.gov/sbdb.cgi?sstr=3584136",
    "absolute_magnitude_h": 24.5,
    "estimated_diameter": {
        "kilometers": {
            "estimated_diameter_min": 0.0334622374,
            "estimated_diameter_max": 0.0748238376
        },
        "meters": {
            "estimated_diameter_min": 33.4622374455,
            "estimated_diameter_max": 74.8238376074
        },
        "miles": {
            "estimated_diameter_min": 0.0207924639,
            "estimated_diameter_max": 0.0464933628
        },
        "feet": {
            "estimated_diameter_min": 109.7842471007,
            "estimated_diameter_max": 245.4850393757
        }
    },
    "is_potentially_hazardous_asteroid": false,
    "close_approach_data": [
        {
            "close_approach_date": "2011-11-11",
            "close_approach_date_full": "2011-Nov-11 20:46",
            "epoch_date_close_approach": 1321044360000,
            "relative_velocity": {
                "kilometers_per_second": "14.2840591839",
                "kilometers_per_hour": "51422.613062044",
                "miles_per_hour": "31952.0119884684"
            },
            "miss_distance": {
                "astronomical": "0.0528098965",
                "lunar": "20.5430497385",
                "kilometers": "7900248.031320455",
                "miles": "4908986.493934079"
            },
            "orbiting_body": "Earth"
        },
        {
            "close_approach_date": "2015-10-31",
            "close_approach_date_full": "2015-Oct-31 01:47",
            "epoch_date_close_approach": 1446256020000,
            "relative_velocity": {
                "kilometers_per_second": "21.6337377199",
                "kilometers_per_hour": "77881.4557917779",
                "miles_per_hour": "48392.50790573"
            },
            "miss_distance": {
                "astronomical": "0.2971438964",
                "lunar": "115.5889756996",
                "kilometers": "44452093.984940668",
                "miles": "27621250.3878424984"
            },
            "orbiting_body": "Earth"
        },
        {
            "close_approach_date": "2016-12-21",
            "close_approach_date_full": "2016-Dec-21 01:07",
            "epoch_date_close_approach": 1482282420000,
            "relative_velocity": {
                "kilometers_per_second": "11.499886981",
                "kilometers_per_hour": "41399.5931315564",
                "miles_per_hour": "25724.0971877718"
            },
            "miss_distance": {
                "astronomical": "0.0378837248",
                "lunar": "14.7367689472",
                "kilometers": "5667324.537746176",
                "miles": "3521512.1730661888"
            },
            "orbiting_body": "Mars"
        }
    ],
    "orbital_data": {
        "orbit_id": "7",
        "orbit_determination_date": "2017-04-06 08:52:11",
        "first_observation_date": "2011-10-26",
        "last_observation_date": "2011-11-04",
        "data_arc_in_days": 9,
        "observations_used": 23,
        "orbit_uncertainty": "8",
        "minimum_orbit_intersection": ".0134392",
        "jupiter_tisserand_invariant": "5.186",
        "epoch_osculation": "2455862.5",
        "eccentricity": ".429610849764954",
        "semi_major_axis": "1.204338449700309",
        "inclination": "4.818448150675089",
        "ascending_node_longitude": "42.53335701921163",
        "orbital_period": "482.7488575308319",
        "perihelion_distance": ".6869415849199521",
        "perihelion_argument": "100.4358986568199",
        "aphelion_distance": "1.721735314480666",
        "perihelion_time": "2455935.161809971329",
        "mean_anomaly": "305.8139544369449",
        "mean_motion": ".7457293671109471",
        "equinox": "J2000",
        "orbit_class": {
            "orbit_class_type": "APO",
            "orbit_class_description": "Near-Earth asteroid orbits which cross the Earth’s orbit similar to that of 1862 Apollo",
            "orbit_class_range": "a (semi-major axis) > 1.0 AU; q (perihelion) < 1.017 AU"
        }
    },
    "is_sentry_object": false
}